[{"CCSDS_OMM_VERS":"3.0","COMMENT":"GENERATED VIA SPACE-TRACK.ORG API","CREATION_DATE":"2026-03-19T00:46:39","ORIGINATOR":"18 SPCS","OBJECT_NAME":"FENGYUN 1C DEB","OBJECT_ID":"1999-025EAW","CENTER_NAME":"EARTH","REF_FRAME":"TEME","TIME_SYSTEM":"UTC","MEAN_ELEMENT_THEORY":"SGP4","EPOCH":"2026-03-18T14:20:15.811008","MEAN_MOTION":"14.26149934","ECCENTRICITY":"0.01000590","INCLINATION":"99.4597","RA_OF_ASC_NODE":"121.9303","ARG_OF_PERICENTER":"284.8307","MEAN_ANOMALY":"229.1680","EPHEMERIS_TYPE":"0","CLASSIFICATION_TYPE":"U","NORAD_CAT_ID":"36724","ELEMENT_SET_NO":"999","REV_AT_EPOCH":"58838","BSTAR":"0.00098406000000","MEAN_MOTION_DOT":"0.00002432","MEAN_MOTION_DDOT":"0.0000000000000","SEMIMAJOR_AXIS":"7182.766","PERIOD":"100.971","APOAPSIS":"876.501","PERIAPSIS":"732.761","OBJECT_TYPE":"DEBRIS","RCS_SIZE":"SMALL","COUNTRY_CODE":"PRC","LAUNCH_DATE":"1999-05-10","SITE":"TSC","DECAY_DATE":null,"FILE":"5090637","GP_ID":"316377786","TLE_LINE0":"0 FENGYUN 1C DEB","TLE_LINE1":"1 36724U 99025EAW 26077.59740522  .00002432  00000-0  98406-3 0  9994","TLE_LINE2":"2 36724  99.4597 121.9303 0100059 284.8307 229.1680 14.26149934588386"},{"CCSDS_OMM_VERS":"3.0","COMMENT":"GENERATED VIA SPACE-TRACK.ORG API","CREATION_DATE":"2015-02-01T00:01:15","ORIGINATOR":"18 SPCS","OBJECT_NAME":"FENGYUN 1C DEB","OBJECT_ID":"1999-025EAX","CENTER_NAME":"EARTH","REF_FRAME":"TEME","TIME_SYSTEM":"UTC","MEAN_ELEMENT_THEORY":"SGP4","EPOCH":"2015-01-28T03:46:29.316000","MEAN_MOTION":"15.21735248","ECCENTRICITY":"0.00323010","INCLINATION":"99.4769","RA_OF_ASC_NODE":"109.6863","ARG_OF_PERICENTER":"197.7272","MEAN_ANOMALY":"165.5542","EPHEMERIS_TYPE":"0","CLASSIFICATION_TYPE":"U","NORAD_CAT_ID":"36725","ELEMENT_SET_NO":"999","REV_AT_EPOCH":"29016","BSTAR":"0.00585400000000","MEAN_MOTION_DOT":"0.00136799","MEAN_MOTION_DDOT":"0.0000000000000","SEMIMAJOR_AXIS":"6878.743","PERIOD":"94.628","APOAPSIS":"522.827","PERIAPSIS":"478.389","OBJECT_TYPE":"DEBRIS","RCS_SIZE":"SMALL","COUNTRY_CODE":"PRC","LAUNCH_DATE":"1999-05-10","SITE":"TSC","DECAY_DATE":"2015-03-23","FILE":"1819495","GP_ID":"98233928","TLE_LINE0":"0 FENGYUN 1C DEB","TLE_LINE1":"1 36725U 99025EAX 15028.15728375  .00136799  00000-0  58540-2 0  9991","TLE_LINE2":"2 36725 099.4769 109.6863 0032301 197.7272 165.5542 15.21735248290160"},{"CCSDS_OMM_VERS":"3.0","COMMENT":"GENERATED VIA SPACE-TRACK.ORG API","CREATION_DATE":"2021-10-03T04:23:41","ORIGINATOR":"18 SPCS","OBJECT_NAME":"FENGYUN 1C DEB","OBJECT_ID":"1999-025EAY","CENTER_NAME":"EARTH","REF_FRAME":"TEME","TIME_SYSTEM":"UTC","MEAN_ELEMENT_THEORY":"SGP4","EPOCH":"2021-10-02T08:40:50.850624","MEAN_MOTION":"15.47918687","ECCENTRICITY":"0.00228520","INCLINATION":"98.9562","RA_OF_ASC_NODE":"220.1431","ARG_OF_PERICENTER":"27.6922","MEAN_ANOMALY":"332.5535","EPHEMERIS_TYPE":"0","CLASSIFICATION_TYPE":"U","NORAD_CAT_ID":"36726","ELEMENT_SET_NO":"999","REV_AT_EPOCH":"69247","BSTAR":"0.00259440000000","MEAN_MOTION_DOT":"0.00138689","MEAN_MOTION_DDOT":"0.0000000000000","SEMIMAJOR_AXIS":"6800.953","PERIOD":"93.028","APOAPSIS":"438.359","PERIAPSIS":"407.276","OBJECT_TYPE":"DEBRIS","RCS_SIZE":"SMALL","COUNTRY_CODE":"PRC","LAUNCH_DATE":"1999-05-10","SITE":"TSC","DECAY_DATE":"2021-11-23","FILE":"3141323","GP_ID":"186043492","TLE_LINE0":"0 FENGYUN 1C DEB","TLE_LINE1":"1 36726U 99025EAY 21275.36169966  .00138689  00000-0  25944-2 0  9993","TLE_LINE2":"2 36726  98.9562 220.1431 0022852  27.6922 332.5535 15.47918687692475"},{"CCSDS_OMM_VERS":"3.0","COMMENT":"GENERATED VIA SPACE-TRACK.ORG API","CREATION_DATE":"2025-04-09T17:26:22","ORIGINATOR":"18 SPCS","OBJECT_NAME":"FENGYUN 1C DEB","OBJECT_ID":"1999-025EAZ","CENTER_NAME":"EARTH","REF_FRAME":"TEME","TIME_SYSTEM":"UTC","MEAN_ELEMENT_THEORY":"SGP4","EPOCH":"2011-04-10T00:58:08.161536","MEAN_MOTION":"14.38422909","ECCENTRICITY":"0.01248550","INCLINATION":"99.0264","RA_OF_ASC_NODE":"192.8032","ARG_OF_PERICENTER":"84.8300","MEAN_ANOMALY":"279.3135","EPHEMERIS_TYPE":"0","CLASSIFICATION_TYPE":"U","NORAD_CAT_ID":"36727","ELEMENT_SET_NO":"999","REV_AT_EPOCH":"13330","BSTAR":"-0.00976880000000","MEAN_MOTION_DOT":"-0.00032535","MEAN_MOTION_DDOT":"0.0000000000000","SEMIMAJOR_AXIS":"7141.851","PERIOD":"100.110","APOAPSIS":"852.886","PERIAPSIS":"674.546","OBJECT_TYPE":"DEBRIS","RCS_SIZE":"SMALL","COUNTRY_CODE":"PRC","LAUNCH_DATE":"1999-05-10","SITE":"TSC","DECAY_DATE":"2023-09-19","FILE":"4696586","GP_ID":"285204728","TLE_LINE0":"0 FENGYUN 1C DEB","TLE_LINE1":"1 36727U 99025EAZ 11100.04037224 -.00032535  00000-0 -97688-2 0  9995","TLE_LINE2":"2 36727  99.0264 192.8032 0124855  84.8300 279.3135 14.38422909133302"},{"CCSDS_OMM_VERS":"3.0","COMMENT":"GENERATED VIA SPACE-TRACK.ORG API","CREATION_DATE":"2013-05-16T06:02:50","ORIGINATOR":"18 SPCS","OBJECT_NAME":"FENGYUN 1C DEB","OBJECT_ID":"1999-025EBA","CENTER_NAME":"EARTH","REF_FRAME":"TEME","TIME_SYSTEM":"UTC","MEAN_ELEMENT_THEORY":"SGP4","EPOCH":"2012-11-26T19:19:06.021120","MEAN_MOTION":"15.03572141","ECCENTRICITY":"0.00762640","INCLINATION":"99.0268","RA_OF_ASC_NODE":"181.8290","ARG_OF_PERICENTER":"277.5020","MEAN_ANOMALY":"81.7541","EPHEMERIS_TYPE":"0","CLASSIFICATION_TYPE":"U","NORAD_CAT_ID":"36728","ELEMENT_SET_NO":"999","REV_AT_EPOCH":"20587","BSTAR":"0.00815620000000","MEAN_MOTION_DOT":"0.00120494","MEAN_MOTION_DDOT":"0.0000000000000","SEMIMAJOR_AXIS":"6934.033","PERIOD":"95.771","APOAPSIS":"608.780","PERIAPSIS":"503.016","OBJECT_TYPE":"DEBRIS","RCS_SIZE":"SMALL","COUNTRY_CODE":"PRC","LAUNCH_DATE":"1999-05-10","SITE":"TSC","DECAY_DATE":"2013-05-20","FILE":"1486102","GP_ID":"92872063","TLE_LINE0":"0 FENGYUN 1C DEB","TLE_LINE1":"1 36728U 99025EBA 12331.80493080  .00120494  00000-0  81562-2 0  9997","TLE_LINE2":"2 36728 099.0268 181.8290 0076264 277.5020 081.7541 15.03572141205876"},{"CCSDS_OMM_VERS":"3.0","COMMENT":"GENERATED VIA SPACE-TRACK.ORG API","CREATION_DATE":"2026-03-28T11:26:42","ORIGINATOR":"18 SPCS","OBJECT_NAME":"FENGYUN 1C DEB","OBJECT_ID":"1999-025EBB","CENTER_NAME":"EARTH","REF_FRAME":"TEME","TIME_SYSTEM":"UTC","MEAN_ELEMENT_THEORY":"SGP4","EPOCH":"2026-03-28T04:27:31.194144","MEAN_MOTION":"14.10433602","ECCENTRICITY":"0.00456558","INCLINATION":"98.7226","RA_OF_ASC_NODE":"70.7463","ARG_OF_PERICENTER":"318.4251","MEAN_ANOMALY":"41.3452","EPHEMERIS_TYPE":"0","CLASSIFICATION_TYPE":"U","NORAD_CAT_ID":"36729","ELEMENT_SET_NO":"999","REV_AT_EPOCH":"88738","BSTAR":"0.00025996997000","MEAN_MOTION_DOT":"0.00000424","MEAN_MOTION_DDOT":"0.0000000000000","SEMIMAJOR_AXIS":"7236.025","PERIOD":"102.096","APOAPSIS":"890.927","PERIAPSIS":"824.854","OBJECT_TYPE":"DEBRIS","RCS_SIZE":"SMALL","COUNTRY_CODE":"PRC","LAUNCH_DATE":"1999-05-10","SITE":"TSC","DECAY_DATE":null,"FILE":"5103506","GP_ID":"317398830","TLE_LINE0":"0 FENGYUN 1C DEB","TLE_LINE1":"1 36729U 99025EBB 26087.18577771  .00000424  00000-0  25997-3 0  9993","TLE_LINE2":"2 36729  98.7226  70.7463 0045656 318.4251  41.3452 14.10433602887387"},{"CCSDS_OMM_VERS":"3.0","COMMENT":"GENERATED VIA SPACE-TRACK.ORG API","CREATION_DATE":"2023-03-24T21:00:36","ORIGINATOR":"18 SPCS","OBJECT_NAME":"FENGYUN 1C DEB","OBJECT_ID":"1999-025EBC","CENTER_NAME":"EARTH","REF_FRAME":"TEME","TIME_SYSTEM":"UTC","MEAN_ELEMENT_THEORY":"SGP4","EPOCH":"2023-03-24T00:29:38.211360","MEAN_MOTION":"14.54515926","ECCENTRICITY":"0.00281080","INCLINATION":"99.6523","RA_OF_ASC_NODE":"108.0433","ARG_OF_PERICENTER":"23.5353","MEAN_ANOMALY":"5.1661","EPHEMERIS_TYPE":"0","CLASSIFICATION_TYPE":"U","NORAD_CAT_ID":"36730","ELEMENT_SET_NO":"999","REV_AT_EPOCH":"58547","BSTAR":"0.02642300000000","MEAN_MOTION_DOT":"0.00115130","MEAN_MOTION_DDOT":"0.0000000000000","SEMIMAJOR_AXIS":"7089.074","PERIOD":"99.002","APOAPSIS":"730.865","PERIAPSIS":"691.013","OBJECT_TYPE":"DEBRIS","RCS_SIZE":"SMALL","COUNTRY_CODE":"PRC","LAUNCH_DATE":"1999-05-10","SITE":"TSC","DECAY_DATE":"2023-09-29","FILE":"3869846","GP_ID":"228781827","TLE_LINE0":"0 FENGYUN 1C DEB","TLE_LINE1":"1 36730U 99025EBC 23083.02058115  .00115130  00000-0  26423-1 0  9991","TLE_LINE2":"2 36730  99.6523 108.0433 0028108  23.5353   5.1661 14.54515926585474"},{"CCSDS_OMM_VERS":"3.0","COMMENT":"GENERATED VIA SPACE-TRACK.ORG API","CREATION_DATE":"2025-04-09T17:16:24","ORIGINATOR":"18 SPCS","OBJECT_NAME":"FENGYUN 1C DEB","OBJECT_ID":"1999-025EBD","CENTER_NAME":"EARTH","REF_FRAME":"TEME","TIME_SYSTEM":"UTC","MEAN_ELEMENT_THEORY":"SGP4","EPOCH":"2022-09-09T02:56:53.009664","MEAN_MOTION":"14.35977747","ECCENTRICITY":"0.00499480","INCLINATION":"99.1355","RA_OF_ASC_NODE":"212.8648","ARG_OF_PERICENTER":"27.4015","MEAN_ANOMALY":"332.9787","EPHEMERIS_TYPE":"0","CLASSIFICATION_TYPE":"U","NORAD_CAT_ID":"36731","ELEMENT_SET_NO":"999","REV_AT_EPOCH":"71433","BSTAR":"0.00095981000000","MEAN_MOTION_DOT":"0.00002779","MEAN_MOTION_DDOT":"0.0000000000000","SEMIMAJOR_AXIS":"7149.956","PERIOD":"100.280","APOAPSIS":"807.534","PERIAPSIS":"736.108","OBJECT_TYPE":"DEBRIS","RCS_SIZE":"SMALL","COUNTRY_CODE":"PRC","LAUNCH_DATE":"1999-05-10","SITE":"TSC","DECAY_DATE":null,"FILE":"4696230","GP_ID":"285201507","TLE_LINE0":"0 FENGYUN 1C DEB","TLE_LINE1":"1 36731U 99025EBD 22252.12283576  .00002779  00000-0  95981-3 0  9992","TLE_LINE2":"2 36731  99.1355 212.8648 0049948  27.4015 332.9787 14.35977747714339"}]